              M50 Cartesian                         J2K Cartesian  
    -----------------------------------       --------------------------------
     X    =        -572279.60                 X    =         -254108.58
     Y    =       17295812.62  feet           Y    =         5269367.93  meter
     Z    =       14008194.86                 Z    =         4268656.49
     XDOT =     -20500.232457                 XDOT =       -6260.664098
     YDOT =       8771.942132  feet/sec       YDOT =        2603.745102  meter/sec
     ZDOT =     -11643.937410                 ZDOT =       -3579.455928
 
              TDR Cartesian                         TDR Cartesian  
    -----------------------------------       --------------------------------
     X    =       -4034123.63                 X    =        -1229600.88
     Y    =       16832882.97  feet           Y    =         5130662.73  meter
     Z    =       14002930.36                 Z    =         4268093.18
     XDOT =     -20521.633850                 XDOT =       -6254.993998
     YDOT =       4895.347133  feet/sec       YDOT =        1492.101806  meter/sec
     ZDOT =     -11772.566251                 ZDOT =       -3588.278193
  
  
    The mean element set is posted at the UTC for which position is
    just north of the next ascending node relative to the above
    vector time
 
 
    TWO LINE MEAN ELEMENT SET
  
    ISS
    1 25544U 98067A   14052.59222113  .00016717  00000-0  10270-3 0  9149
    2 25544  51.6508 312.6258 0003314 161.8658 198.2612 15.50548395 33392
  
  
    Satellite: ISS
    Catalog Number: 25544
    Epoch time:      14052.59222113   =   yrday.fracday
    Element set:     914
    Inclination:       51.6508  deg
    RA of node:       312.6258  deg
    Eccentricity:     .0003314     
    Arg of perigee:   161.8658  deg
    Mean anomaly:     198.2612  deg
    Mean motion:   15.50548395  rev/day
    Decay rate:    1.67170E-04  rev/day^2
    Epoch rev:            3339
    Checksum:              305
 
             </PRE>
           </TD>
        </TR>
    </TABLE>
    
    <table align="center" border="0" width="600" cellpadding="0" cellspacing="0">
      <tr>
        <td align="center" valign="top"><hr size="1" width="600" noshade="noshade" />
        <font face="Arial,helvetica" size="-2">Curator: <a href="/cgi-bin/comment.cgi?jsc-hsfwebma@mail.nasa.gov">Kim 
          Dismukes</a> | Responsible NASA Official: <a href="/cgi-bin/comment.cgi?jsc-hsfwebma@mail.nasa.gov">Amiko Kauderer</a> | Updated: 06/08/2009<br />
        <a href="http://www.nasa.gov/about/highlights/HP_Privacy.html">Privacy Policy and Important Notices</a></font></td>
      </tr>
    </table>
    </body>
    </html>
